STARLINK-2383
1 17802C 21018R   21326.18299064 -.00005961  00000-0 -39937-3 0  3267
2 17802  53.0473  97.9652 0004745 116.8799 178.3709 15.06400593    13
